NORAD_CAT_ID,OBJECT_NAME,OBJECT_TYPE,EPOCH,MEAN_MOTION,ECCENTRICITY,INCLINATION,RA_OF_ASC_NODE,ARG_OF_PERICENTER,MEAN_ANOMALY,BSTAR,MEAN_MOTION_DOT,MEAN_MOTION_DDOT,TLE_LINE0,TLE_LINE1,TLE_LINE2,SEMIMAJOR_AXIS,PERIOD,APOGEE,PERIGEE,DECAYED
56462.0,STARLINK-6045,PAYLOAD,2024-02-15 03:39:20,14.98328913,0.0002734,70.0017,204.2086,270.1763,89.9083,4.9511e-05,4.98e-06,0.0,0 STARLINK-6045,1 56462U 23064Q   24046.15232213  .00000498  00000-0  49511-4 0  9998,2 56462  70.0017 204.2086 0002734 270.1763  89.9083 14.98328913 43725,6950.196,96.107,573.961,570.161,0.0
56462.0,STARLINK-6045,PAYLOAD,2024-02-15 14:52:17,14.98328108,0.000273,70.0018,203.0307,269.8635,90.2211,-4.1803e-05,-5.92e-06,0.0,0 STARLINK-6045,1 56462U 23064Q   24046.61964546 -.00000592  00000-0 -41803-4 0  9993,2 56462  70.0018 203.0307 0002730 269.8635  90.2211 14.98328108 43430,6950.199,96.107,573.961,570.166,0.0
56462.0,STARLINK-6045,PAYLOAD,2024-02-15 19:40:41,14.9832855,0.0002753,70.0016,202.5256,269.4261,90.6583,-3.6299e-05,-5.26e-06,0.0,0 STARLINK-6045,1 56462U 23064Q   24046.81992514 -.00000526  00000-0 -36299-4 0  9991,2 56462  70.0016 202.5256 0002753 269.4261  90.6583 14.98328550 43461,6950.197,96.107,573.976,570.149,0.0
56462.0,STARLINK-6045,PAYLOAD,2024-02-16 03:41:21,14.98330193,0.0003252,70.0012,201.6835,269.5711,90.5075,-2.731e-05,-4.19e-06,0.0,0 STARLINK-6045,1 56462U 23064Q   24047.15372248 -.00000419  00000-0 -27310-4 0  9990,2 56462  70.0012 201.6835 0003252 269.5711  90.5075 14.98330193 43872,6950.192,96.107,574.317,569.797,0.0
56462.0,STARLINK-6045,PAYLOAD,2024-02-16 14:54:17,14.98332525,0.0002927,70.0013,200.5052,270.0646,90.0177,2.1928e-05,1.69e-06,0.0,0 STARLINK-6045,1 56462U 23064Q   24047.62104008  .00000169  00000-0  21928-4 0  9998,2 56462  70.0013 200.5052 0002927 270.0646  90.0177 14.98332525 43581,6950.185,96.107,574.084,570.016,0.0
56462.0,STARLINK-6045,PAYLOAD,2024-02-16 19:42:41,14.98335453,0.000293,70.0014,200.0004,270.9666,89.1157,5.3845e-05,5.5e-06,0.0,0 STARLINK-6045,1 56462U 23064Q   24047.82131693  .00000550  00000-0  53845-4 0  9997,2 56462  70.0014 200.0004 0002930 270.9666  89.1157 14.98335453 43972,6950.176,96.107,574.077,570.005,0.0
56462.0,STARLINK-6045,PAYLOAD,2024-02-17 11:44:03,14.98323575,0.0002916,70.0015,198.3173,269.5934,90.4891,-2.9336e-06,-1.28e-06,0.0,0 STARLINK-6045,1 56462U 23064Q   24048.48892563 -.00000128  00000-0 -29336-5 0  9992,2 56462  70.0015 198.3173 0002916 269.5934  90.4891 14.98323575 44079,6950.213,96.107,574.104,570.051,0.0
56462.0,STARLINK-6045,PAYLOAD,2024-02-17 14:56:19,14.98323896,0.0002888,70.0016,197.9808,269.0146,91.0682,-2.4151e-06,-1.22e-06,0.0,0 STARLINK-6045,1 56462U 23064Q   24048.62244584 -.00000122  00000-0 -24151-5 0  9996,2 56462  70.0016 197.9808 0002888 269.0146  91.0682 14.98323896 43731,6950.212,96.107,574.084,570.07,0.0
56462.0,STARLINK-6045,PAYLOAD,2024-02-17 19:44:43,14.9832686,0.0002926,70.0016,197.4754,267.0147,93.0677,2.332e-05,1.85e-06,0.0,0 STARLINK-6045,1 56462U 23064Q   24048.82272337  .00000185  00000-0  23320-4 0  9998,2 56462  70.0016 197.4754 0002926 267.0147  93.0677 14.98326860 43761,6950.203,96.107,574.101,570.034,0.0
56462.0,STARLINK-6045,PAYLOAD,2024-02-18 11:46:03,14.98328857,0.0003006,70.0016,195.7913,268.7892,91.2923,0.00010292,1.135e-05,0.0,0 STARLINK-6045,1 56462U 23064Q   24049.49031922  .00001135  00000-0  10292-3 0  9994,2 56462  70.0016 195.7913 0003006 268.7892  91.2923 14.98328857 44228,6950.196,96.107,574.151,569.972,0.0
56462.0,STARLINK-6045,PAYLOAD,2024-02-18 14:58:19,14.98327645,0.0002936,70.0018,195.4563,267.5777,92.5046,0.00013631,1.534e-05,0.0,0 STARLINK-6045,1 56462U 23064Q   24049.62383935  .00001534  00000-0  13631-3 0  9996,2 56462  70.0018 195.4563 0002936 267.5777  92.5046 14.98327645 43883,6950.2,96.107,574.106,570.025,0.0
56462.0,STARLINK-6045,PAYLOAD,2024-02-18 19:46:43,14.98338664,0.0002885,70.0019,194.9525,264.7219,95.3611,3.2822e-05,2.99e-06,0.0,0 STARLINK-6045,1 56462U 23064Q   24049.82411342  .00000299  00000-0  32822-4 0  9993,2 56462  70.0019 194.9525 0002885 264.7219  95.3611 14.98338664 44275,6950.166,96.106,574.036,570.026,0.0
56462.0,STARLINK-6045,PAYLOAD,2024-02-19 11:48:05,14.98321996,0.0002805,70.002,193.2694,264.6485,95.4354,-5.3445e-05,-7.3e-06,0.0,0 STARLINK-6045,1 56462U 23064Q   24050.49172658 -.00000730  00000-0 -53445-4 0  9998,2 56462  70.0020 193.2694 0002805 264.6485  95.4354 14.98321996 44378,6950.218,96.108,574.032,570.133,0.0
56462.0,STARLINK-6045,PAYLOAD,2024-02-19 13:24:13,14.98322054,0.0002801,70.002,193.1011,264.5858,95.4981,-5.2247e-05,-7.16e-06,0.0,0 STARLINK-6045,1 56462U 23064Q   24050.55848679 -.00000716  00000-0 -52247-4 0  9991,2 56462  70.0020 193.1011 0002801 264.5858  95.4981 14.98322054 44023,6950.217,96.108,574.029,570.136,0.0
56462.0,STARLINK-6045,PAYLOAD,2024-02-19 19:48:45,14.98323461,0.0002773,70.0021,192.4281,264.2881,95.7962,-3.3738e-05,-4.95e-06,0.0,0 STARLINK-6045,1 56462U 23064Q   24050.82552637 -.00000495  00000-0 -33738-4 0  9995,2 56462  70.0021 192.4281 0002773 264.2881  95.7962 14.98323461 44065,6950.213,96.107,574.005,570.151,0.0
56462.0,STARLINK-6045,PAYLOAD,2024-02-20 02:13:17,14.98329839,0.0002841,70.002,191.754,268.1574,91.926,-6.1129e-05,-8.22e-06,0.0,0 STARLINK-6045,1 56462U 23064Q   24051.09256361 -.00000822  00000-0 -61129-4 0  9999,2 56462  70.0020 191.7540 0002841 268.1574  91.9260 14.98329839 44460,6950.193,96.107,574.033,570.084,0.0
56462.0,STARLINK-6045,PAYLOAD,2024-02-20 15:02:21,14.98337206,0.000284,70.0016,190.4072,269.135,90.9483,7.185e-06,-7e-08,0.0,0 STARLINK-6045,1 56462U 23064Q   24051.62663616 -.00000007  00000-0  71850-5 0  9990,2 56462  70.0016 190.4072 0002840 269.1350  90.9483 14.98337206 44185,6950.171,96.107,574.009,570.062,0.0
56462.0,STARLINK-6045,PAYLOAD,2024-02-20 18:14:37,14.98338052,0.0002996,70.0014,190.0702,269.9861,90.0955,1.8779e-05,1.31e-06,0.0,0 STARLINK-6045,1 56462U 23064Q   24051.76015458  .00000131  00000-0  18779-4 0  9997,2 56462  70.0014 190.0702 0002996 269.9861  90.0955 14.98338052 44563,6950.168,96.106,574.115,569.951,0.0
56462.0,STARLINK-6045,PAYLOAD,2024-02-20 19:50:45,14.98338487,0.0002998,70.0013,189.9018,270.3393,89.7422,2.1022e-05,1.58e-06,0.0,0 STARLINK-6045,1 56462U 23064Q   24051.82691395  .00000158  00000-0  21022-4 0  9998,2 56462  70.0013 189.9018 0002998 270.3393  89.7422 14.98338487 44215,6950.167,96.106,574.115,569.948,0.0
56462.0,STARLINK-6045,PAYLOAD,2024-02-21 11:52:06,14.98325615,0.0003067,70.0013,188.2187,271.3601,88.7206,3.0062e-05,2.66e-06,0.0,0 STARLINK-6045,1 56462U 23064Q   24052.49452086  .00000266  00000-0  30062-4 0  9998,2 56462  70.0013 188.2187 0003067 271.3601  88.7206 14.98325615 44673,6950.206,96.107,574.203,569.94,0.0
56462.0,STARLINK-6045,PAYLOAD,2024-02-21 15:04:22,14.98328726,0.000285,70.0014,187.8821,266.7919,93.2914,5.1653e-05,5.23e-06,0.0,0 STARLINK-6045,1 56462U 23064Q   24052.62803844  .00000523  00000-0  51653-4 0  9990,2 56462  70.0014 187.8821 0002850 266.7919  93.2914 14.98328726 44339,6950.197,96.107,574.043,570.081,0.0
56462.0,STARLINK-6045,PAYLOAD,2024-02-21 18:16:38,14.98329562,0.0003019,70.0014,187.5458,268.9885,91.0928,6.2773e-05,6.56e-06,0.0,0 STARLINK-6045,1 56462U 23064Q   24052.76155756  .00000656  00000-0  62773-4 0  9999,2 56462  70.0014 187.5458 0003019 268.9885  91.0928 14.98329562 44358,6950.194,96.107,574.158,569.961,0.0
56462.0,STARLINK-6045,PAYLOAD,2024-02-22 11:54:07,14.98327606,0.0002806,70.0019,185.6949,267.6381,92.4456,-8.6367e-05,-1.123e-05,0.0,0 STARLINK-6045,1 56462U 23064Q   24053.49592373 -.00001123  00000-0 -86367-4 0  9997,2 56462  70.0019 185.6949 0002806 267.6381  92.4456 14.98327606 44827,6950.2,96.107,574.016,570.115,0.0
56462.0,STARLINK-6045,PAYLOAD,2024-02-22 15:06:23,14.98327724,0.0002929,70.0017,185.3584,270.2874,89.7949,-0.00010171,-1.306e-05,0.0,0 STARLINK-6045,1 56462U 23064Q   24053.62944439 -.00001306  00000-0 -10171-3 0  9998,2 56462  70.0017 185.3584 0002929 270.2874  89.7949 14.98327724 44489,6950.2,96.107,574.101,570.029,0.0
56462.0,STARLINK-6045,PAYLOAD,2024-02-22 18:18:40,14.98328466,0.0002882,70.0019,185.0221,270.5179,89.565,-8.5065e-05,-1.108e-05,0.0,0 STARLINK-6045,1 56462U 23064Q   24053.76296363 -.00001108  00000-0 -85065-4 0  9994,2 56462  70.0019 185.0221 0002882 270.5179  89.5650 14.98328466 44509,6950.198,96.107,574.066,570.06,0.0
56462.0,STARLINK-6045,PAYLOAD,2024-02-23 11:56:08,14.98332661,0.0003037,70.0017,183.1711,271.8938,88.1874,1.6501e-05,1.04e-06,0.0,0 STARLINK-6045,1 56462U 23064Q   24054.49731768  .00000104  00000-0  16501-4 0  9990,2 56462  70.0017 183.1711 0003037 271.8938  88.1874 14.98332661 44976,6950.185,96.107,574.16,569.939,0.0
56462.0,STARLINK-6045,PAYLOAD,2024-02-23 15:08:24,14.98335335,0.0002975,70.0018,182.8342,270.2613,89.8205,5.1609e-05,5.23e-06,0.0,0 STARLINK-6045,1 56462U 23064Q   24054.63083466  .00000523  00000-0  51609-4 0  9994,2 56462  70.0018 182.8342 0002975 270.2613  89.8205 14.98335335 44636,6950.176,96.107,574.109,569.974,0.0
56462.0,STARLINK-6045,PAYLOAD,2024-02-23 18:20:40,14.98335598,0.0002984,70.0019,182.4976,270.4507,89.631,5.3067e-05,5.4e-06,0.0,0 STARLINK-6045,1 56462U 23064Q   24054.76435410  .00000540  00000-0  53067-4 0  9997,2 56462  70.0019 182.4976 0002984 270.4507  89.6310 14.98335598 44658,6950.176,96.107,574.115,569.967,0.0
56462.0,STARLINK-6045,PAYLOAD,2024-02-24 11:58:09,14.98323549,0.0002933,70.0022,180.6461,270.7641,89.3182,1.3838e-06,-7.6e-07,0.0,0 STARLINK-6045,1 56462U 23064Q   24055.49872385 -.00000076  00000-0  13838-5 0  9992,2 56462  70.0022 180.6461 0002933 270.7641  89.3182 14.98323549 45127,6950.213,96.107,574.116,570.039,0.0
56462.0,STARLINK-6045,PAYLOAD,2024-02-24 15:10:25,14.98325357,0.0002935,70.0021,180.3094,270.7075,89.3747,1.9961e-05,1.45e-06,0.0,0 STARLINK-6045,1 56462U 23064Q   24055.63224259  .00000145  00000-0  19961-4 0  9997,2 56462  70.0021 180.3094 0002935 270.7075  89.3747 14.98325357 44785,6950.207,96.107,574.112,570.032,0.0
